NORAD_CAT_ID,OBJECT_NAME,OBJECT_TYPE,EPOCH,MEAN_MOTION,ECCENTRICITY,INCLINATION,RA_OF_ASC_NODE,ARG_OF_PERICENTER,MEAN_ANOMALY,BSTAR,MEAN_MOTION_DOT,MEAN_MOTION_DDOT,TLE_LINE0,TLE_LINE1,TLE_LINE2,SEMIMAJOR_AXIS,PERIOD,APOGEE,PERIGEE,DECAYED
53847.0,STARLINK-4777,PAYLOAD,2023-10-06 09:33:22,15.08832797,0.0001773,53.2169,308.2782,82.9269,277.1925,0.00022107,3.231e-05,0.0,0 STARLINK-4777,1 53847U 22114AF  23279.39818221  .00003231  00000-0  22107-3 0  9998,2 53847  53.2169 308.2782 0001773  82.9269 277.1925 15.08832797 58780,6917.902,95.438,540.994,538.541,0.0
53847.0,STARLINK-4777,PAYLOAD,2023-10-06 19:05:41,15.08835597,0.0001873,53.217,306.4939,94.9526,265.168,0.00022737,3.332e-05,0.0,0 STARLINK-4777,1 53847U 22114AF  23279.79562349  .00003332  00000-0  22737-3 0  9990,2 53847  53.2170 306.4939 0001873  94.9526 265.1680 15.08835597 59389,6917.894,95.438,541.055,538.463,0.0
53847.0,STARLINK-4777,PAYLOAD,2023-10-07 10:59:32,15.08850116,0.0001668,53.2164,303.5205,93.034,267.0843,0.0004501,6.885e-05,0.0,0 STARLINK-4777,1 53847U 22114AF  23280.45801989  .00006885  00000-0  45010-3 0  9996,2 53847  53.2164 303.5205 0001668  93.0340 267.0843 15.08850116 58949,6917.849,95.437,540.868,538.561,0.0
53847.0,STARLINK-4777,PAYLOAD,2023-10-07 18:56:29,15.08837215,0.0001799,53.2164,302.0342,87.7807,272.3391,0.00022637,3.316e-05,0.0,0 STARLINK-4777,1 53847U 22114AF  23280.78922523  .00003316  00000-0  22637-3 0  9996,2 53847  53.2164 302.0342 0001799  87.7807 272.3391 15.08837215 58995,6917.889,95.438,540.998,538.509,0.0
53847.0,STARLINK-4777,PAYLOAD,2023-10-08 10:50:20,15.08848957,0.0001701,53.2158,299.06,89.0667,271.052,0.0004669,7.152e-05,0.0,0 STARLINK-4777,1 53847U 22114AF  23281.45162343  .00007152  00000-0  46690-3 0  9994,2 53847  53.2158 299.0600 0001701  89.0667 271.0520 15.08848957 59639,6917.853,95.437,540.895,538.541,0.0
53847.0,STARLINK-4777,PAYLOAD,2023-10-08 18:47:16,15.08844971,0.0001697,53.2152,297.5725,89.7179,270.4008,0.00033043,4.975e-05,0.0,0 STARLINK-4777,1 53847U 22114AF  23281.78282417  .00004975  00000-0  33043-3 0  9993,2 53847  53.2152 297.5725 0001697  89.7179 270.4008 15.08844971 59684,6917.865,95.437,540.904,538.556,0.0
53847.0,STARLINK-4777,PAYLOAD,2023-10-09 01:08:48,15.08843549,0.0001745,53.2154,296.3828,90.754,269.3652,0.00025403,3.758e-05,0.0,0 STARLINK-4777,1 53847U 22114AF  23282.04778455  .00003758  00000-0  25403-3 0  9994,2 53847  53.2154 296.3828 0001745  90.7540 269.3652 15.08843549 59182,6917.87,95.437,540.942,538.527,0.0
53847.0,STARLINK-4777,PAYLOAD,2023-10-09 07:30:20,15.08850615,0.0001753,53.2168,295.1939,98.0768,262.0423,0.00035682,5.397e-05,0.0,0 STARLINK-4777,1 53847U 22114AF  23282.31274167  .00005397  00000-0  35682-3 0  9996,2 53847  53.2168 295.1939 0001753  98.0768 262.0423 15.08850615 59761,6917.848,95.437,540.926,538.5,0.0
53847.0,STARLINK-4777,PAYLOAD,2023-10-10 00:59:35,15.08841569,0.0001641,53.2158,291.9227,95.3091,264.8088,0.00014951,2.092e-05,0.0,0 STARLINK-4777,1 53847U 22114AF  23283.04138426  .00002092  00000-0  14951-3 0  9999,2 53847  53.2158 291.9227 0001641  95.3091 264.8088 15.08841569 59337,6917.876,95.437,540.876,538.605,0.0
53847.0,STARLINK-4777,PAYLOAD,2023-10-10 07:21:07,15.0884725,0.0001658,53.2157,290.7329,87.2747,272.8435,0.00017014,2.421e-05,0.0,0 STARLINK-4777,1 53847U 22114AF  23283.30634197  .00002421  00000-0  17014-3 0  9993,2 53847  53.2157 290.7329 0001658  87.2747 272.8435 15.08847250 59914,6917.858,95.437,540.87,538.576,0.0
53847.0,STARLINK-4777,PAYLOAD,2023-10-11 05:36:32,15.08838299,0.0001665,53.216,286.5708,88.0801,272.0382,5.0148e-05,5.1e-06,0.0,0 STARLINK-4777,1 53847U 22114AF  23284.23370813  .00000510  00000-0  50148-4 0  9991,2 53847  53.2160 286.5708 0001665  88.0801 272.0382 15.08838299 59512,6917.886,95.438,540.902,538.599,0.0
53847.0,STARLINK-4777,PAYLOAD,2023-10-11 10:22:41,15.08841885,0.0001659,53.2163,285.6768,87.1225,272.9957,6.3485e-05,7.23e-06,0.0,0 STARLINK-4777,1 53847U 22114AF  23284.43242611  .00000723  00000-0  63485-4 0  9991,2 53847  53.2163 285.6768 0001659  87.1225 272.9957 15.08841885 60080,6917.875,95.437,540.887,538.592,0.0
53847.0,STARLINK-4777,PAYLOAD,2023-10-12 07:02:42,15.088422,0.0001589,53.2164,281.8145,94.3146,265.8028,0.00019805,2.866e-05,0.0,0 STARLINK-4777,1 53847U 22114AF  23285.29354883  .00002866  00000-0  19805-3 0  9997,2 53847  53.2164 281.8145 0001589  94.3146 265.8028 15.08842200 60219,6917.874,95.437,540.838,538.639,0.0
53847.0,STARLINK-4777,PAYLOAD,2023-10-12 16:35:01,15.08844284,0.000154,53.2164,280.0305,92.6665,267.4503,0.00023931,3.523e-05,0.0,0 STARLINK-4777,1 53847U 22114AF  23285.69098889  .00003523  00000-0  23931-3 0  9998,2 53847  53.2164 280.0305 0001540  92.6665 267.4503 15.08844284 59737,6917.867,95.437,540.798,538.667,0.0
53847.0,STARLINK-4777,PAYLOAD,2023-10-13 08:28:52,15.08845285,0.0001872,53.218,277.0583,102.9022,257.2179,0.00022779,3.34e-05,0.0,0 STARLINK-4777,1 53847U 22114AF  23286.35338994  .00003340  00000-0  22779-3 0  9992,2 53847  53.2180 277.0583 0001872 102.9022 257.2179 15.08845285 60379,6917.864,95.437,541.024,538.434,0.0
53847.0,STARLINK-4777,PAYLOAD,2023-10-14 05:08:53,15.08846715,0.0001771,53.217,273.1922,104.764,255.3548,0.00016897,2.403e-05,0.0,0 STARLINK-4777,1 53847U 22114AF  23287.21450789  .00002403  00000-0  16897-3 0  9998,2 53847  53.2170 273.1922 0001771 104.7640 255.3548 15.08846715 59967,6917.86,95.437,540.95,538.5,0.0
53847.0,STARLINK-4777,PAYLOAD,2023-10-14 06:44:16,15.08849401,0.000169,53.2167,272.8932,101.1629,258.9554,0.00022153,3.24e-05,0.0,0 STARLINK-4777,1 53847U 22114AF  23287.28074667  .00003240  00000-0  22153-3 0  9994,2 53847  53.2167 272.8932 0001690 101.1629 258.9554 15.08849401 60512,6917.852,95.437,540.886,538.548,0.0
53847.0,STARLINK-4777,PAYLOAD,2023-10-14 22:38:08,15.08835251,0.0001831,53.2161,269.9218,87.7646,272.3556,-7.5987e-06,-4.09e-06,0.0,0 STARLINK-4777,1 53847U 22114AF  23287.94315399 -.00000409  00000-0 -75987-5 0  9998,2 53847  53.2161 269.9218 0001831  87.7646 272.3556 15.08835251 60616,6917.895,95.438,541.027,538.493,0.0
53847.0,STARLINK-4777,PAYLOAD,2023-10-15 04:59:41,15.08829147,0.0001412,53.2157,268.7299,99.0807,261.0345,-0.0001227,-2.24e-05,0.0,0 STARLINK-4777,1 53847U 22114AF  23288.20811660 -.00002240  00000-0 -12270-3 0  9999,2 53847  53.2157 268.7299 0001412  99.0807 261.0345 15.08829147 60110,6917.914,95.438,540.755,538.802,0.0
53847.0,STARLINK-4777,PAYLOAD,2023-10-15 08:10:27,15.08836596,0.0001483,53.2164,268.1349,98.5043,261.6117,3.348e-06,-2.35e-06,0.0,0 STARLINK-4777,1 53847U 22114AF  23288.34059616 -.00000235  00000-0  33480-5 0  9998,2 53847  53.2164 268.1349 0001483  98.5043 261.6117 15.08836596 60672,6917.891,95.438,540.782,538.73,0.0
53847.0,STARLINK-4777,PAYLOAD,2023-10-15 16:07:22,15.08844963,0.0001468,53.2173,266.6487,99.2082,260.9077,0.00017517,2.501e-05,0.0,0 STARLINK-4777,1 53847U 22114AF  23288.67179313  .00002501  00000-0  17517-3 0  9999,2 53847  53.2173 266.6487 0001468  99.2082 260.9077 15.08844963 60182,6917.865,95.437,540.746,538.715,0.0
53847.0,STARLINK-4777,PAYLOAD,2023-10-16 08:01:13,15.08882799,0.0001353,53.2161,263.6736,99.7679,260.3466,0.0017164,0.00027166,0.0,0 STARLINK-4777,1 53847U 22114AF  23289.33418544  .00027166  00000-0  17164-2 0  9996,2 53847  53.2161 263.6736 0001353  99.7679 260.3466 15.08882799 60289,6917.75,95.435,540.551,538.679,0.0
53847.0,STARLINK-4777,PAYLOAD,2023-10-16 09:36:36,15.0888405,0.0001315,53.216,263.3763,97.9825,262.1317,0.0015225,0.00024055,0.0,0 STARLINK-4777,1 53847U 22114AF  23289.40042339  .00024055  00000-0  15225-2 0  9999,2 53847  53.2160 263.3763 0001315  97.9825 262.1317 15.08884050 60834,6917.746,95.435,540.52,538.701,0.0
53847.0,STARLINK-4777,PAYLOAD,2023-10-16 22:19:42,15.08844682,0.0001508,53.2164,260.9969,109.7641,250.3514,0.00085079,0.0001328,0.0,0 STARLINK-4777,1 53847U 22114AF  23289.93035036  .00013280  00000-0  85079-3 0  9996,2 53847  53.2164 260.9969 0001508 109.7641 250.3514 15.08844682 60915,6917.866,95.437,540.774,538.688,0.0
53847.0,STARLINK-4777,PAYLOAD,2023-10-18 02:56:39,15.08850943,0.0001341,53.2168,255.6444,89.3579,270.7567,0.00098431,0.00015417,0.0,0 STARLINK-4777,1 53847U 22114AF  23291.12267571  .00015417  00000-0  98431-3 0  9991,2 53847  53.2168 255.6444 0001341  89.3579 270.7567 15.08850943 61097,6917.847,95.437,540.64,538.784,0.0
53847.0,STARLINK-4777,PAYLOAD,2023-10-18 04:32:02,15.08850203,0.0001354,53.2167,255.3467,90.2454,269.8693,0.00083167,0.00012976,0.0,0 STARLINK-4777,1 53847U 22114AF  23291.18891495  .00012976  00000-0  83167-3 0  9992,2 53847  53.2167 255.3467 0001354  90.2454 269.8693 15.08850203 60564,6917.849,95.437,540.651,538.778,0.0
53847.0,STARLINK-4777,PAYLOAD,2023-10-18 07:42:48,15.08854463,0.0001354,53.2168,254.7521,90.3703,269.7445,0.00087051,0.00013599,0.0,0 STARLINK-4777,1 53847U 22114AF  23291.32139370  .00013599  00000-0  87051-3 0  9993,2 53847  53.2168 254.7521 0001354  90.3703 269.7445 15.08854463 61126,6917.836,95.437,540.638,538.765,0.0
53847.0,STARLINK-4777,PAYLOAD,2023-10-19 04:22:48,15.08861821,0.0001382,53.2165,250.8866,100.7002,259.4146,0.00060202,9.312e-05,0.0,0 STARLINK-4777,1 53847U 22114AF  23292.18251113  .00009312  00000-0  60202-3 0  9995,2 53847  53.2165 250.8866 0001382 100.7002 259.4146 15.08861821 60715,6917.814,95.436,540.635,538.723,0.0
53847.0,STARLINK-4777,PAYLOAD,2023-10-19 21:52:03,15.08845242,0.0001476,53.2169,247.6154,97.1365,262.9795,0.00065922,0.00010221,0.0,0 STARLINK-4777,1 53847U 22114AF  23292.91115414  .00010221  00000-0  65922-3 0  9994,2 53847  53.2169 247.6154 0001476  97.1365 262.9795 15.08845242 61368,6917.864,95.437,540.75,538.708,0.0
53847.0,STARLINK-4777,PAYLOAD,2023-10-20 04:13:36,15.08840227,0.0001466,53.2171,246.4283,105.2018,254.9137,0.00014253,1.981e-05,0.0,0 STARLINK-4777,1 53847U 22114AF  23293.17611532  .00001981  00000-0  14253-3 0  9999,2 53847  53.2171 246.4283 0001466 105.2018 254.9137 15.08840227 60869,6917.88,95.438,540.759,538.731,0.0
